ONEWEB-0122             
1 47268U 20100L   26081.22444039  .00000118  00000+0  29210-3 0  9991
2 47268  87.9020   7.9202 0002011  79.3139 280.8216 13.12443556253147
ONEWEB-0123             
1 47269U 20100M   26081.22020465 -.00000092  00000+0 -29097-3 0  9991
2 47269  87.9005   7.9390 0001727  75.4551 284.6769 13.12445321253289
ONEWEB-0124             
1 47270U 20100N   26081.21003794 -.00000321  00000+0 -92850-3 0  9990
2 47270  87.9005   7.9452 0001713  81.4872 278.6451 13.12444097253165
ONEWEB-0125             
1 47271U 20100P   26081.18800964  .00000011  00000+0 -56593-5 0  9992
2 47271  87.9018   7.9227 0001465  78.7887 281.3406 13.12440749253227
ONEWEB-0126             
1 47272U 20100Q   26081.20848271 -.00000339  00000+0 -97629-3 0  9996
2 47272  87.9007   7.9404 0001886  75.0625 285.0712 13.12443773253298
ONEWEB-0127             
1 47273U 20100R   26081.25071627  .00000467  00000+0  12614-2 0  9995
2 47273  87.9002   7.9352 0001942  75.8016 284.3329 13.12442321253329
ONEWEB-0128             
1 47274U 20100S   26081.27272169 -.00000239  00000+0 -69876-3 0  9994
2 47274  87.9003   7.9447 0001972  88.1593 271.9762 13.12443473253340
ONEWEB-0129             
1 47275U 20100T   26081.25240703  .00000474  00000+0  12820-2 0  9997
2 47275  87.9013   7.9135 0002764  61.8849 298.2559 13.12442629253278
ONEWEB-0130             
1 47276U 20100U   26081.20326253 -.00000345  00000+0 -99418-3 0  9996
2 47276  87.9015   7.9173 0001910  78.2626 281.8717 13.12443689253237
ONEWEB-0131             
1 47277U 20100V   26081.27610894 -.00000308  00000+0 -89181-3 0  9996
2 47277  87.9004   7.9306 0001838  78.7873 281.3462 13.12443411253282
ONEWEB-0132             
1 47278U 20100W   26081.22868374  .00000213  00000+0  55805-3 0  9999
2 47278  87.9007   7.9395 0001840  81.3977 278.7360 13.12444141253178
ONEWEB-0133             
1 47279U 20100X   26081.24549251  .00000555  00000+0  15078-2 0  9998
2 47279  87.9018   7.9025 0001879  83.1453 276.9889 13.12442703253338
ONEWEB-0134             
1 47280U 20100Y   26081.21512139 -.00000178  00000+0 -52880-3 0  9998
2 47280  87.9020   7.9054 0002088  81.1095 279.0270 13.12445139253309
ONEWEB-0135             
1 47281U 20100Z   26081.26255463  .00000102  00000+0  24721-3 0  9996
2 47281  87.9004   7.9303 0002103  83.9877 276.1492 13.12442394253332
ONEWEB-0136             
1 47282U 20100AA  26081.28118308 -.00000508  00000+0 -14474-2 0  9990
2 47282  87.9011   7.9005 0002113  80.4513 279.6855 13.12445931253263
ONEWEB-0137             
1 47283U 20100AB  26081.23884257  .00000531  00000+0  14398-2 0  9998
2 47283  87.9022   7.9150 0001741  75.4792 284.6529 13.12442246253165
ONEWEB-0138             
1 47284U 20100AC  26081.21681440 -.00000166  00000+0 -49803-3 0  9992
2 47284  87.9015   7.9281 0002041  78.2686 281.8671 13.12445036253246
