[{"OBJECT_NAME":"ONEWEB-0122","OBJECT_ID":"2020-100L","EPOCH":"2026-03-22T05:23:11.649696","MEAN_MOTION":13.12443556,"ECCENTRICITY":0.00020119,"INCLINATION":87.902,"RA_OF_ASC_NODE":7.9202,"ARG_OF_PERICENTER":79.3139,"MEAN_ANOMALY":280.8216,"EPHEMERIS_TYPE":0,"CLASSIFICATION_TYPE":"U","NORAD_CAT_ID":47268,"ELEMENT_SET_NO":999,"REV_AT_EPOCH":25314,"BSTAR":0.0002920969,"MEAN_MOTION_DOT":1.18e-6,"MEAN_MOTION_DDOT":0},{"OBJECT_NAME":"ONEWEB-0123","OBJECT_ID":"2020-100M","EPOCH":"2026-03-22T05:17:05.681760","MEAN_MOTION":13.12445321,"ECCENTRICITY":0.0001727,"INCLINATION":87.9005,"RA_OF_ASC_NODE":7.939,"ARG_OF_PERICENTER":75.4551,"MEAN_ANOMALY":284.6769,"EPHEMERIS_TYPE":0,"CLASSIFICATION_TYPE":"U","NORAD_CAT_ID":47269,"ELEMENT_SET_NO":999,"REV_AT_EPOCH":25328,"BSTAR":-0.00029096691,"MEAN_MOTION_DOT":-9.2e-7,"MEAN_MOTION_DDOT":0},{"OBJECT_NAME":"ONEWEB-0124","OBJECT_ID":"2020-100N","EPOCH":"2026-03-22T05:02:27.278016","MEAN_MOTION":13.12444097,"ECCENTRICITY":0.00017137,"INCLINATION":87.9005,"RA_OF_ASC_NODE":7.9452,"ARG_OF_PERICENTER":81.4872,"MEAN_ANOMALY":278.6451,"EPHEMERIS_TYPE":0,"CLASSIFICATION_TYPE":"U","NORAD_CAT_ID":47270,"ELEMENT_SET_NO":999,"REV_AT_EPOCH":25316,"BSTAR":-0.00092849643,"MEAN_MOTION_DOT":-3.21e-6,"MEAN_MOTION_DDOT":0},{"OBJECT_NAME":"ONEWEB-0125","OBJECT_ID":"2020-100P","EPOCH":"2026-03-22T04:30:44.032896","MEAN_MOTION":13.12440749,"ECCENTRICITY":0.00014651,"INCLINATION":87.9018,"RA_OF_ASC_NODE":7.9227,"ARG_OF_PERICENTER":78.7887,"MEAN_ANOMALY":281.3406,"EPHEMERIS_TYPE":0,"CLASSIFICATION_TYPE":"U","NORAD_CAT_ID":47271,"ELEMENT_SET_NO":999,"REV_AT_EPOCH":25322,"BSTAR":-5.659308e-6,"MEAN_MOTION_DOT":1.1e-7,"MEAN_MOTION_DDOT":0},{"OBJECT_NAME":"ONEWEB-0126","OBJECT_ID":"2020-100Q","EPOCH":"2026-03-22T05:00:12.906144","MEAN_MOTION":13.12443773,"ECCENTRICITY":0.00018869,"INCLINATION":87.9007,"RA_OF_ASC_NODE":7.9404,"ARG_OF_PERICENTER":75.0625,"MEAN_ANOMALY":285.0712,"EPHEMERIS_TYPE":0,"CLASSIFICATION_TYPE":"U","NORAD_CAT_ID":47272,"ELEMENT_SET_NO":999,"REV_AT_EPOCH":25329,"BSTAR":-0.00097628618,"MEAN_MOTION_DOT":-3.39e-6,"MEAN_MOTION_DDOT":0},{"OBJECT_NAME":"ONEWEB-0127","OBJECT_ID":"2020-100R","EPOCH":"2026-03-22T06:01:01.885728","MEAN_MOTION":13.12442321,"ECCENTRICITY":0.00019428,"INCLINATION":87.9002,"RA_OF_ASC_NODE":7.9352,"ARG_OF_PERICENTER":75.8016,"MEAN_ANOMALY":284.3329,"EPHEMERIS_TYPE":0,"CLASSIFICATION_TYPE":"U","NORAD_CAT_ID":47273,"ELEMENT_SET_NO":999,"REV_AT_EPOCH":25332,"BSTAR":0.001261384,"MEAN_MOTION_DOT":4.67e-6,"MEAN_MOTION_DDOT":0},{"OBJECT_NAME":"ONEWEB-0128","OBJECT_ID":"2020-100S","EPOCH":"2026-03-22T06:32:43.154016","MEAN_MOTION":13.12443473,"ECCENTRICITY":0.00019722,"INCLINATION":87.9003,"RA_OF_ASC_NODE":7.9447,"ARG_OF_PERICENTER":88.1593,"MEAN_ANOMALY":271.9762,"EPHEMERIS_TYPE":0,"CLASSIFICATION_TYPE":"U","NORAD_CAT_ID":47274,"ELEMENT_SET_NO":999,"REV_AT_EPOCH":25334,"BSTAR":-0.00069875594,"MEAN_MOTION_DOT":-2.39e-6,"MEAN_MOTION_DDOT":0},{"OBJECT_NAME":"ONEWEB-0129","OBJECT_ID":"2020-100T","EPOCH":"2026-03-22T06:03:27.967392","MEAN_MOTION":13.12442629,"ECCENTRICITY":0.00027643,"INCLINATION":87.9013,"RA_OF_ASC_NODE":7.9135,"ARG_OF_PERICENTER":61.8849,"MEAN_ANOMALY":298.2559,"EPHEMERIS_TYPE":0,"CLASSIFICATION_TYPE":"U","NORAD_CAT_ID":47275,"ELEMENT_SET_NO":999,"REV_AT_EPOCH":25327,"BSTAR":0.0012820093,"MEAN_MOTION_DOT":4.74e-6,"MEAN_MOTION_DDOT":0},{"OBJECT_NAME":"ONEWEB-0130","OBJECT_ID":"2020-100U","EPOCH":"2026-03-22T04:52:41.882592","MEAN_MOTION":13.12443689,"ECCENTRICITY":0.00019107,"INCLINATION":87.9015,"RA_OF_ASC_NODE":7.9173,"ARG_OF_PERICENTER":78.2626,"MEAN_ANOMALY":281.8717,"EPHEMERIS_TYPE":0,"CLASSIFICATION_TYPE":"U","NORAD_CAT_ID":47276,"ELEMENT_SET_NO":999,"REV_AT_EPOCH":25323,"BSTAR":-0.00099418053,"MEAN_MOTION_DOT":-3.45e-6,"MEAN_MOTION_DDOT":0},{"OBJECT_NAME":"ONEWEB-0131","OBJECT_ID":"2020-100V","EPOCH":"2026-03-22T06:37:35.812416","MEAN_MOTION":13.12443411,"ECCENTRICITY":0.00018386,"INCLINATION":87.9004,"RA_OF_ASC_NODE":7.9306,"ARG_OF_PERICENTER":78.7873,"MEAN_ANOMALY":281.3462,"EPHEMERIS_TYPE":0,"CLASSIFICATION_TYPE":"U","NORAD_CAT_ID":47277,"ELEMENT_SET_NO":999,"REV_AT_EPOCH":25328,"BSTAR":-0.00089180948,"MEAN_MOTION_DOT":-3.08e-6,"MEAN_MOTION_DDOT":0},{"OBJECT_NAME":"ONEWEB-0132","OBJECT_ID":"2020-100W","EPOCH":"2026-03-22T05:29:18.275136","MEAN_MOTION":13.12444141,"ECCENTRICITY":0.00018406,"INCLINATION":87.9007,"RA_OF_ASC_NODE":7.9395,"ARG_OF_PERICENTER":81.3977,"MEAN_ANOMALY":278.736,"EPHEMERIS_TYPE":0,"CLASSIFICATION_TYPE":"U","NORAD_CAT_ID":47278,"ELEMENT_SET_NO":999,"REV_AT_EPOCH":25317,"BSTAR":0.00055805011,"MEAN_MOTION_DOT":2.13e-6,"MEAN_MOTION_DDOT":0},{"OBJECT_NAME":"ONEWEB-0133","OBJECT_ID":"2020-100X","EPOCH":"2026-03-22T05:53:30.552864","MEAN_MOTION":13.12442703,"ECCENTRICITY":0.00018795,"INCLINATION":87.9018,"RA_OF_ASC_NODE":7.9025,"ARG_OF_PERICENTER":83.1453,"MEAN_ANOMALY":276.9889,"EPHEMERIS_TYPE":0,"CLASSIFICATION_TYPE":"U","NORAD_CAT_ID":47279,"ELEMENT_SET_NO":999,"REV_AT_EPOCH":25333,"BSTAR":0.0015078245,"MEAN_MOTION_DOT":5.55e-6,"MEAN_MOTION_DDOT":0},{"OBJECT_NAME":"ONEWEB-0134","OBJECT_ID":"2020-100Y","EPOCH":"2026-03-22T05:09:46.488096","MEAN_MOTION":13.12445139,"ECCENTRICITY":0.00020885,"INCLINATION":87.902,"RA_OF_ASC_NODE":7.9054,"ARG_OF_PERICENTER":81.1095,"MEAN_ANOMALY":279.027,"EPHEMERIS_TYPE":0,"CLASSIFICATION_TYPE":"U","NORAD_CAT_ID":47280,"ELEMENT_SET_NO":999,"REV_AT_EPOCH":25330,"BSTAR":-0.00052880069,"MEAN_MOTION_DOT":-1.78e-6,"MEAN_MOTION_DDOT":0},{"OBJECT_NAME":"ONEWEB-0135","OBJECT_ID":"2020-100Z","EPOCH":"2026-03-22T06:18:04.720032","MEAN_MOTION":13.12442394,"ECCENTRICITY":0.00021037,"INCLINATION":87.9004,"RA_OF_ASC_NODE":7.9303,"ARG_OF_PERICENTER":83.9877,"MEAN_ANOMALY":276.1492,"EPHEMERIS_TYPE":0,"CLASSIFICATION_TYPE":"U","NORAD_CAT_ID":47281,"ELEMENT_SET_NO":999,"REV_AT_EPOCH":25333,"BSTAR":0.00024721469,"MEAN_MOTION_DOT":1.02e-6,"MEAN_MOTION_DDOT":0},{"OBJECT_NAME":"ONEWEB-0136","OBJECT_ID":"2020-100AA","EPOCH":"2026-03-22T06:44:54.218112","MEAN_MOTION":13.12445931,"ECCENTRICITY":0.00021132,"INCLINATION":87.9011,"RA_OF_ASC_NODE":7.9005,"ARG_OF_PERICENTER":80.4513,"MEAN_ANOMALY":279.6855,"EPHEMERIS_TYPE":0,"CLASSIFICATION_TYPE":"U","NORAD_CAT_ID":47282,"ELEMENT_SET_NO":999,"REV_AT_EPOCH":25326,"BSTAR":-0.0014474054,"MEAN_MOTION_DOT":-5.08e-6,"MEAN_MOTION_DDOT":0},{"OBJECT_NAME":"ONEWEB-0137","OBJECT_ID":"2020-100AB","EPOCH":"2026-03-22T05:43:55.998048","MEAN_MOTION":13.12442246,"ECCENTRICITY":0.00017413,"INCLINATION":87.9022,"RA_OF_ASC_NODE":7.915,"ARG_OF_PERICENTER":75.4792,"MEAN_ANOMALY":284.6529,"EPHEMERIS_TYPE":0,"CLASSIFICATION_TYPE":"U","NORAD_CAT_ID":47283,"ELEMENT_SET_NO":999,"REV_AT_EPOCH":25316,"BSTAR":0.0014398109,"MEAN_MOTION_DOT":5.31e-6,"MEAN_MOTION_DDOT":0},{"OBJECT_NAME":"ONEWEB-0138","OBJECT_ID":"2020-100AC","EPOCH":"2026-03-22T05:12:12.764160","MEAN_MOTION":13.12445036,"ECCENTRICITY":0.0002041,"INCLINATION":87.9015,"RA_OF_ASC_NODE":7.9281,"ARG_OF_PERICENTER":78.2686,"MEAN_ANOMALY":281.8671,"EPHEMERIS_TYPE":0,"CLASSIFICATION_TYPE":"U","NORAD_CAT_ID":47284,"ELEMENT_SET_NO":999,"REV_AT_EPOCH":25324,"BSTAR":-0.00049802943,"MEAN_MOTION_DOT":-1.66e-6,"MEAN_MOTION_DDOT":0}]
